GLOBALSTAR M044         
1 25678U 99019C   24187.87873652 -.00000043  00000+0  56876-3 0  9996
2 25678  51.9940 226.3425 0006325  93.8961  76.8686 11.90234698130068
GLOBALSTAR M025         
1 25770U 99031A   24187.85758690 -.00000060  00000+0  24407-3 0  9999
2 25770  51.9794 241.5675 0001537 272.5506 259.0374 11.22551011442819
GLOBALSTAR M049         
1 25771U 99031B   24187.58409204 -.00000113  00000+0 -16441-2 0  9992
2 25771  51.9865 259.5459 0003200 157.0592 203.0348 11.12106540 78861
GLOBALSTAR M047         
1 25772U 99031C   24187.71763471 -.00000047  00000+0  61464-3 0  9998
2 25772  51.9844 289.3136 0016034  29.6591 330.5122 11.31920846431878
GLOBALSTAR M052         
1 25773U 99031D   24187.85246792 -.00000086  00000+0 -67243-3 0  9991
2 25773  51.9894  12.4820 0002135 335.2231 131.2454 11.15051990439872
